start=new Date('2021-11-03T00:00:00.000Z').valueOf();
sats=[{"APOAPSIS":"553.328","NORAD_CAT_ID":"48435","DECAY_DATE":null,"RA_OF_ASC_NODE":"93.8927","RCS_SIZE":"LARGE","REF_FRAME":"TEME","ARG_OF_PERICENTER":"97.9330","MEAN_MOTION":"15.04771252","SEMIMAJOR_AXIS":"6930.345","ELEMENT_SET_NO":"999","ECCENTRICITY":"0.00016130","PERIAPSIS":"551.092","TLE_LINE2":"2 48435  53.0546  93.8927 0001613  97.9330 262.1841 15.04771252 27501","MEAN_MOTION_DDOT":"0.0000000000000","MEAN_ANOMALY":"262.1841","MEAN_ELEMENT_THEORY":"SGP4","LAUNCH_DATE":"2021-05-09","TIME_SYSTEM":"UTC","OBJECT_TYPE":"PAYLOAD","EPOCH":"2021-11-02T16:00:55.660896","TLE_LINE1":"1 48435U 21040H   21306.66731089  .00000703  00000-0  68755-4 0  9998","SITE":"AFETR","FILE":"3198350","REV_AT_EPOCH":"2750","CENTER_NAME":"EARTH","GP_ID":"188776053","COUNTRY_CODE":"US","INCLINATION":"53.0546","MEAN_MOTION_DOT":"0.00000703","OBJECT_NAME":"STARLINK-2633","OBJECT_ID":"2021-040H","EPHEMERIS_TYPE":"0","PERIOD":"95.696","BSTAR":"0.00006875500000","CLASSIFICATION_TYPE":"U"},{"EPOCH":"2021-11-02T17:53:42.635904","TIME_SYSTEM":"UTC","OBJECT_TYPE":"PAYLOAD","TLE_LINE1":"1 48436U 21040J   21306.74563236  .00002346  00000-0  17631-3 0  9996","PERIAPSIS":"546.072","SEMIMAJOR_AXIS":"6925.349","ELEMENT_SET_NO":"999","ECCENTRICITY":"0.00016500","LAUNCH_DATE":"2021-05-09","MEAN_ANOMALY":"274.0713","MEAN_ELEMENT_THEORY":"SGP4","TLE_LINE2":"2 48436  53.0542 110.1698 0001650  86.0464 274.0713 15.06399703 27288","MEAN_MOTION_DDOT":"0.0000000000000","REF_FRAME":"TEME","ARG_OF_PERICENTER":"86.0464","RCS_SIZE":"LARGE","RA_OF_ASC_NODE":"110.1698","MEAN_MOTION":"15.06399703","APOAPSIS":"548.357","NORAD_CAT_ID":"48436","DECAY_DATE":null,"BSTAR":"0.00017631000000","PERIOD":"95.592","CLASSIFICATION_TYPE":"U","COUNTRY_CODE":"US","EPHEMERIS_TYPE":"0","OBJECT_NAME":"STARLINK-2639","OBJECT_ID":"2021-040J","MEAN_MOTION_DOT":"0.00002346","INCLINATION":"53.0542","GP_ID":"188776399","SITE":"AFETR","CENTER_NAME":"EARTH","REV_AT_EPOCH":"2728","FILE":"3198350"},{"EPHEMERIS_TYPE":"0","OBJECT_ID":"2021-040K","OBJECT_NAME":"STARLINK-2642","MEAN_MOTION_DOT":"0.00000579","INCLINATION":"53.0138","COUNTRY_CODE":"US","CLASSIFICATION_TYPE":"U","BSTAR":"0.00006004700000","PERIOD":"95.695","CENTER_NAME":"EARTH","REV_AT_EPOCH":"2717","FILE":"3198350","SITE":"AFETR","GP_ID":"188775823","LAUNCH_DATE":"2021-05-09","MEAN_ELEMENT_THEORY":"SGP4","MEAN_ANOMALY":"270.2476","MEAN_MOTION_DDOT":"0.0000000000000","TLE_LINE2":"2 48437  53.0138 119.4646 0002343  89.8781 270.2476 15.04776858 27178","PERIAPSIS":"550.569","ELEMENT_SET_NO":"999","SEMIMAJOR_AXIS":"6930.328","ECCENTRICITY":"0.00023430","TLE_LINE1":"1 48437U 21040K   21306.90432109  .00000579  00000-0  60047-4 0  9995","EPOCH":"2021-11-02T21:42:13.342176","OBJECT_TYPE":"PAYLOAD","TIME_SYSTEM":"UTC","DECAY_DATE":null,"APOAPSIS":"553.817","NORAD_CAT_ID":"48437","MEAN_MOTION":"15.04776858","REF_FRAME":"TEME","ARG_OF_PERICENTER":"89.8781","RA_OF_ASC_NODE":"119.4646","RCS_SIZE":"MEDIUM"},{"GP_ID":"188775938","CENTER_NAME":"EARTH","REV_AT_EPOCH":"2728","FILE":"3198350","SITE":"AFETR","CLASSIFICATION_TYPE":"U","BSTAR":"0.00029361000000","PERIOD":"95.591","OBJECT_NAME":"STARLINK-2640","OBJECT_ID":"2021-040L","EPHEMERIS_TYPE":"0","MEAN_MOTION_DOT":"0.00004096","INCLINATION":"53.0539","COUNTRY_CODE":"US","MEAN_MOTION":"15.06410686","ARG_OF_PERICENTER":"87.3899","REF_FRAME":"TEME","RA_OF_ASC_NODE":"110.1931","RCS_SIZE":"LARGE","DECAY_DATE":null,"APOAPSIS":"548.617","NORAD_CAT_ID":"48438","TLE_LINE1":"1 48438U 21040L   21306.74194141  .00004096  00000-0  29361-3 0  9990","TIME_SYSTEM":"UTC","OBJECT_TYPE":"PAYLOAD","EPOCH":"2021-11-02T17:48:23.737824","LAUNCH_DATE":"2021-05-09","MEAN_MOTION_DDOT":"0.0000000000000","TLE_LINE2":"2 48438  53.0539 110.1931 0002074  87.3899 272.7328 15.06410686 27284","MEAN_ANOMALY":"272.7328","MEAN_ELEMENT_THEORY":"SGP4","PERIAPSIS":"545.744","ECCENTRICITY":"0.00020740","SEMIMAJOR_AXIS":"6925.316","ELEMENT_SET_NO":"999"},{"GP_ID":"188775708","SITE":"AFETR","FILE":"3198350","REV_AT_EPOCH":"2728","CENTER_NAME":"EARTH","PERIOD":"95.592","BSTAR":"0.00027761000000","CLASSIFICATION_TYPE":"U","COUNTRY_CODE":"US","MEAN_MOTION_DOT":"0.00003856","INCLINATION":"53.0553","OBJECT_NAME":"STARLINK-2583","OBJECT_ID":"2021-040M","EPHEMERIS_TYPE":"0","RA_OF_ASC_NODE":"110.2153","RCS_SIZE":"LARGE","REF_FRAME":"TEME","ARG_OF_PERICENTER":"90.1761","MEAN_MOTION":"15.06405495","APOAPSIS":"548.429","NORAD_CAT_ID":"48439","DECAY_DATE":null,"TIME_SYSTEM":"UTC","OBJECT_TYPE":"PAYLOAD","EPOCH":"2021-11-02T17:43:05.200032","TLE_LINE1":"1 48439U 21040M   21306.73825463  .00003856  00000-0  27761-3 0  9993","ECCENTRICITY":"0.00017800","SEMIMAJOR_AXIS":"6925.332","ELEMENT_SET_NO":"999","PERIAPSIS":"545.964","MEAN_MOTION_DDOT":"0.0000000000000","TLE_LINE2":"2 48439  53.0553 110.2153 0001780  90.1761 269.9432 15.06405495 27287","MEAN_ELEMENT_THEORY":"SGP4","MEAN_ANOMALY":"269.9432","LAUNCH_DATE":"2021-05-09"},{"EPHEMERIS_TYPE":"0","OBJECT_NAME":"STARLINK-2682","OBJECT_ID":"2021-040N","INCLINATION":"53.0565","MEAN_MOTION_DOT":"0.00000996","COUNTRY_CODE":"US","CLASSIFICATION_TYPE":"U","BSTAR":"0.00008573300000","PERIOD":"95.592","REV_AT_EPOCH":"2728","CENTER_NAME":"EARTH","FILE":"3198350","SITE":"AFETR","GP_ID":"188776515","LAUNCH_DATE":"2021-05-09","MEAN_ELEMENT_THEORY":"SGP4","MEAN_ANOMALY":"267.6644","TLE_LINE2":"2 48440  53.0565 110.2109 0001841  92.4556 267.6644 15.06402172 27287","MEAN_MOTION_DDOT":"0.0000000000000","PERIAPSIS":"545.932","ELEMENT_SET_NO":"999","SEMIMAJOR_AXIS":"6925.342","ECCENTRICITY":"0.00018410","TLE_LINE1":"1 48440U 21040N   21306.73456394  .00000996  00000-0  85733-4 0  9994","EPOCH":"2021-11-02T17:37:46.324416","TIME_SYSTEM":"UTC","OBJECT_TYPE":"PAYLOAD","DECAY_DATE":null,"APOAPSIS":"548.482","NORAD_CAT_ID":"48440","MEAN_MOTION":"15.06402172","ARG_OF_PERICENTER":"92.4556","REF_FRAME":"TEME","RA_OF_ASC_NODE":"110.2109","RCS_SIZE":"LARGE"},{"APOAPSIS":"548.487","NORAD_CAT_ID":"48441","DECAY_DATE":null,"RA_OF_ASC_NODE":"110.2287","RCS_SIZE":"LARGE","ARG_OF_PERICENTER":"96.6192","REF_FRAME":"TEME","MEAN_MOTION":"15.06396947","SEMIMAJOR_AXIS":"6925.358","ELEMENT_SET_NO":"999","ECCENTRICITY":"0.00018260","PERIAPSIS":"545.958","MEAN_ELEMENT_THEORY":"SGP4","MEAN_ANOMALY":"263.5005","TLE_LINE2":"2 48441  53.0560 110.2287 0001826  96.6192 263.5005 15.06396947 27283","MEAN_MOTION_DDOT":"0.0000000000000","LAUNCH_DATE":"2021-05-09","EPOCH":"2021-11-02T17:32:28.196160","TIME_SYSTEM":"UTC","OBJECT_TYPE":"PAYLOAD","TLE_LINE1":"1 48441U 21040P   21306.73088190  .00000009  00000-0  19523-4 0  9999","SITE":"AFETR","FILE":"3198350","REV_AT_EPOCH":"2728","CENTER_NAME":"EARTH","GP_ID":"188776169","COUNTRY_CODE":"US","INCLINATION":"53.0560","MEAN_MOTION_DOT":"0.00000009","EPHEMERIS_TYPE":"0","OBJECT_ID":"2021-040P","OBJECT_NAME":"STARLINK-2702","PERIOD":"95.592","BSTAR":"0.00001952300000","CLASSIFICATION_TYPE":"U"},{"GP_ID":"188776284","SITE":"AFETR","FILE":"3198350","REV_AT_EPOCH":"2729","CENTER_NAME":"EARTH","PERIOD":"95.592","BSTAR":"0.00003244600000","CLASSIFICATION_TYPE":"U","COUNTRY_CODE":"US","MEAN_MOTION_DOT":"0.00000202","INCLINATION":"53.0541","OBJECT_ID":"2021-040Q","OBJECT_NAME":"STARLINK-2644","EPHEMERIS_TYPE":"0","RA_OF_ASC_NODE":"109.9490","RCS_SIZE":"LARGE","REF_FRAME":"TEME","ARG_OF_PERICENTER":"69.2177","MEAN_MOTION":"15.06405261","APOAPSIS":"548.396","NORAD_CAT_ID":"48442","DECAY_DATE":null,"OBJECT_TYPE":"PAYLOAD","TIME_SYSTEM":"UTC","EPOCH":"2021-11-02T19:02:41.552736","TLE_LINE1":"1 48442U 21040Q   21306.79353649  .00000202  00000-0  32446-4 0  9994","SEMIMAJOR_AXIS":"6925.332","ELEMENT_SET_NO":"999","ECCENTRICITY":"0.00017310","PERIAPSIS":"545.999","MEAN_MOTION_DDOT":"0.0000000000000","TLE_LINE2":"2 48442  53.0541 109.9490 0001731  69.2177 290.8997 15.06405261 27292","MEAN_ANOMALY":"290.8997","MEAN_ELEMENT_THEORY":"SGP4","LAUNCH_DATE":"2021-05-09"},{"GP_ID":"188776054","REV_AT_EPOCH":"2728","CENTER_NAME":"EARTH","FILE":"3198350","SITE":"AFETR","CLASSIFICATION_TYPE":"U","BSTAR":"0.00007782600000","PERIOD":"95.592","EPHEMERIS_TYPE":"0","OBJECT_NAME":"STARLINK-2663","OBJECT_ID":"2021-040R","MEAN_MOTION_DOT":"0.00000878","INCLINATION":"53.0550","COUNTRY_CODE":"US","MEAN_MOTION":"15.06398612","REF_FRAME":"TEME","ARG_OF_PERICENTER":"80.5765","RCS_SIZE":"LARGE","RA_OF_ASC_NODE":"110.2588","DECAY_DATE":null,"APOAPSIS":"548.320","NORAD_CAT_ID":"48443","TLE_LINE1":"1 48443U 21040R   21306.72350937  .00000878  00000-0  77826-4 0  9995","EPOCH":"2021-11-02T17:21:51.209568","OBJECT_TYPE":"PAYLOAD","TIME_SYSTEM":"UTC","LAUNCH_DATE":"2021-05-09","MEAN_ANOMALY":"279.5403","MEAN_ELEMENT_THEORY":"SGP4","MEAN_MOTION_DDOT":"0.0000000000000","TLE_LINE2":"2 48443  53.0550 110.2588 0001591  80.5765 279.5403 15.06398612 27285","PERIAPSIS":"546.116","SEMIMAJOR_AXIS":"6925.353","ECCENTRICITY":"0.00015910","ELEMENT_SET_NO":"999"},{"ARG_OF_PERICENTER":"80.5952","REF_FRAME":"TEME","RA_OF_ASC_NODE":"110.2798","RCS_SIZE":"LARGE","MEAN_MOTION":"15.06400839","APOAPSIS":"548.405","NORAD_CAT_ID":"48444","DECAY_DATE":null,"TIME_SYSTEM":"UTC","OBJECT_TYPE":"PAYLOAD","EPOCH":"2021-11-02T17:16:32.369376","TLE_LINE1":"1 48444U 21040S   21306.71981909  .00000950  00000-0  82659-4 0  9995","PERIAPSIS":"546.017","SEMIMAJOR_AXIS":"6925.346","ECCENTRICITY":"0.00017240","ELEMENT_SET_NO":"999","LAUNCH_DATE":"2021-05-09","TLE_LINE2":"2 48444  53.0551 110.2798 0001724  80.5952 279.5232 15.06400839 27281","MEAN_MOTION_DDOT":"0.0000000000000","MEAN_ANOMALY":"279.5232","MEAN_ELEMENT_THEORY":"SGP4","GP_ID":"188776400","SITE":"AFETR","REV_AT_EPOCH":"2728","CENTER_NAME":"EARTH","FILE":"3198350","BSTAR":"0.00008265900000","PERIOD":"95.592","CLASSIFICATION_TYPE":"U","COUNTRY_CODE":"US","OBJECT_ID":"2021-040S","OBJECT_NAME":"STARLINK-2645","EPHEMERIS_TYPE":"0","MEAN_MOTION_DOT":"0.00000950","INCLINATION":"53.0551"}];
